#dP2025  2  1  0  0  0.00000000      96 __u+U IGS20 FIT  IAC
## 2351 518400.00000000   900.00000000 60707 0.0000000000000
+  129   C01C02C03C04C05C06C07C08C09C10C11C12C13C14C16C19C20
+        C21C22C23C24C25C26C27C28C29C30C32C33C34C35C36C37C38
+        C39C40C41C42C43C44C45C59C60C62E02E03E04E05E06E07E08
+        E09E10E11E13E14E15E18E19E21E24E25E26E27E29E30E31E33
+        E34E36G01G02G03G04G05G06G07G08G09G10G11G12G13G14G15
+        G16G17G18G19G20G21G22G23G24G25G26G27G28G29G30G31G32
+        J02J03J04J07R01R02R03R04R05R06R07R08R09R10R11R12R13
+        R14R15R16R17R18R20R21R22R23R24  0  0  0  0  0  0  0
++        16 16 16  0 16  9 10  9  9  9  9  9  9  9  9  7  7
++         7  7  7  7  7  7  7  7  7  7  7  7  7  7  7  7  8
++         8  8  7  7  7  7  7 17 17 17  4  4  4  4  4  4  4
++         4  4  4  4  4  4  4  4  3  4  4  4  4  4  4  4  4
++         4  4  4  4  3  4  4  3  4  4  4  4  3  3  4  4  4
++         4  4  4  4  4  4  4  4  4  3  4  4  3  3  4  3  4
++        10 10 10 16  7  6  6  6  6  6  6  6  6 14  6  6 14
++         6  6  6  6  6  7  6  6 14  6  0  0  0  0  0  0  0
%c M  cc GPS ccc cccc cccc cccc cccc ccccc ccccc ccccc ccccc
%c cc cc ccc ccc cccc cccc cccc cccc ccccc ccccc ccccc ccccc
%f  0.0000000  0.000000000  0.00000000000  0.000000000000000
%f  0.0000000  0.000000000  0.00000000000  0.000000000000000
%i    0    0    0    0      0      0      0      0         0
%i    0    0    0    0      0      0      0      0         0
/* INFORMATION & ANALYSIS CENTER (IAC)            RAPID DATA
/* S/V CLOCKS ARE ALIGNED TO GNSS TIME                      
/* G:C1WC2W R:C1PC2P E:C1XC5X C:C2IC6I J:C1CC2S             
/* PCV:IGS20_2350 OL/AL:FES2004  NONE     YN ORB:CoN CLK:CoN
*  2025 02 01  0 30  0.00000000
PC01 -34277.387951  24514.529653   -718.741319   -349.112671
PC02   4427.535080  41942.098722   1368.285144    634.484823
PC03 -14767.288975  39533.410093    -24.237760    769.732904
PC04      0.000000      0.000000      0.000000 999999.999999
PC05  21956.800972  35997.198697   1395.465758   -285.000228
PC06  -3901.966915  25373.281549  33594.381721    735.525368
PC07 -18184.242319  34559.374580 -16089.799262    221.357782
PC08  -3549.689433  40194.988178 -11754.387819     95.102273
PC09   5027.183928  28874.749733  31061.342751   -855.724802
PC10 -11559.339546  34733.684768 -21039.504250   -424.932014
PC11  16521.720395  13045.454318 -18250.541544    363.497889
PC12  -4686.766160  15215.524401 -22876.573706   -204.321989
PC13   -270.521501  41287.222919  -7606.896684     58.473974
PC14   6695.552920  16778.103025  21298.184206   -723.637249
PC16  -5577.350193  24219.857440  34432.152233   -106.297866
PC19 -13298.393851  -7947.647319 -23184.428208   -962.052158
PC20   -363.773845 -21904.660092 -17255.344751   -866.282026
PC21 -14271.359622  23998.656511     85.336946   -903.725149
PC22 -19554.640058  11519.875080 -16256.780300    245.701356
PC23  17875.853698     59.277293 -21433.597655   -944.919064
PC24   8285.170154  25559.002238   7468.359718    671.104242
PC25  19073.470948  17693.269427 -10084.434625    633.048978
PC26  -6074.611126  18237.860955  20193.218554   -413.717928
PC27  14872.563952 -13468.455586  19381.419566    431.157109
PC28  26344.909228  -5064.274012   7700.609981    337.943739
PC29 -23628.943481  -8173.988615  12385.143799    396.629976
PC30  -5273.514698 -15762.208005  22405.573766     94.238079
PC32  14146.423733 -24044.300246     68.442161   -903.735877
PC33  13307.331316   8015.314914  23187.061619   -949.969438
PC34   7243.343994  15524.025391 -22045.450740    619.582520
PC35 -26451.221063   5549.137287  -6881.572545    137.961036
PC36 -18754.531466 -17916.512413  10327.002626    259.402769
PC37   6848.681856 -17766.891145 -20410.923119   -909.854647
PC38  -9122.735136  35589.823866 -20492.501716    206.114497
PC39 -12196.266078  20849.666767  34603.383738    -10.841715
PC40 -25534.648458  29532.037802 -16313.020488   -118.209123
PC41  19484.193763 -10532.607549  17019.432114   -882.643752
PC42  -1138.456653  22943.052213  15914.245847   -584.004898
PC43  23214.385849   8626.500963 -12897.883060    100.063908
PC44 -14398.999694  14167.350749 -19255.272110    727.510722
PC45 -17989.857173   -885.035853  21308.272185   -223.301050
PC59 -32339.402630  27064.546030    102.462409     -0.089648
PC60   7314.594301  41526.848791    -44.624755      0.623041
PC62 -39635.270312  14394.377171    174.977998      0.125457
PE02 -15588.984576  -8415.933403  23702.419055    194.291568
PE03 -24456.440036  -1758.055936 -16592.308086   -170.204290
PE04  26672.336401 -12772.999225  -1251.153469   -146.604800
PE05  -7900.408281 -14947.300274 -24292.677171   4823.844261
PE06  21466.764419 -17506.505397 -10457.133744    -77.109997
PE07 -13632.437828  19459.103643  17665.072561   -166.623557
PE08 -26900.232499  12349.686057    604.400801   -409.742060
PE09  13732.816876 -19340.912114 -17697.587489   -759.284795
PE10  11735.213893 -11137.696230  24789.403058   -686.989517
PE11   1353.772626 -17902.742324  23526.718377   -675.013461
PE13  -1842.872991  17575.928464 -23738.535786    -29.846365
PE14  -9301.769386 -14342.674882  19825.100265    663.802154
PE15 -19618.003737   3043.891848 -21938.172308   -154.412728
PE18  -1731.325899  21290.343594 -21669.796790   1061.884054
PE19  23460.809652   3086.421409  17792.659723   1316.056110
PE21   6377.464257  25690.250333 -13252.465443   -643.607842
PE24   7006.249909 -28276.712064  -5342.517204  -1244.093103
PE25  -6064.304135 -25969.116945  12849.516886     13.829385
PE26  16951.190892  21523.507484 -11202.829333   -137.788500
PE27  -6910.237933  28274.053980   5340.509440   -571.061934
PE29   8322.247299  14929.550420  24165.138717    -66.838665
PE30 -15971.574903  14284.065040  20395.908088  -1195.726366
PE31  15947.640040 -14151.913872 -20537.948285    -52.802520
PE33  25529.495306  13297.196465   6914.775387     16.431577
PE34 -25585.049974 -12990.985868  -7266.107264   -160.982767
PE36 -16586.141271 -21545.925489  11689.089960   -346.966272
PG01  21423.492107  15704.310983   -456.094305     90.821154
PG02  22622.928805  13774.996992  -3482.304094   -254.084457
PG03  11944.550718  14502.647985  18655.239294    656.205690
PG04  18945.011529   4434.900570  18169.742074    520.526045
PG05  -6176.726348 -24573.279029  -8027.866681   -200.667498
PG06   7991.291661 -12246.108082  22245.330483   -157.466549
PG07  23494.423168   4609.690952 -11421.411387    -13.439686
PG08   9827.834711  12155.513538 -21633.775434    471.955716
PG09  23501.322673  -4458.178991  11528.537196    550.405589
PG10 -10316.362037  18987.561633 -14977.048013   -300.244594
PG11  -3956.207426 -18315.940182  18885.677141   -749.609070
PG12 -10441.045923 -17251.461405  17017.593572   -567.690304
PG13    489.260309 -15831.327784 -21516.133051    695.174870
PG14  12961.490838 -15526.567166 -17042.494497    590.441876
PG15 -11614.838873 -11096.162810 -21685.927997    258.244863
PG16   -276.678337  26124.434511  -3506.978480    -63.993023
PG17  22791.735718 -13522.677794   3432.419212    447.622040
PG18 -22381.127280  -2660.766734 -14200.532147   -655.454578
PG19  16640.644557 -16277.980382  12229.905021    592.836962
PG20   -506.920041 -26108.606500   5294.319290    366.637845
PG21  18826.887609  16639.890276  -9812.175455    101.849087
PG22   9942.198582 -22181.875230 -10680.880610    -95.039538
PG23 -14488.906649   4311.079567 -21766.952555    414.900260
PG24 -21049.260527 -15340.260063  -6650.570576   -457.552803
PG25 -15166.540077  -3816.152763  21130.051479    495.804766
PG26  -4331.171627  24658.735927   8074.669687    -71.731984
PG27  -2559.697577  17551.957248 -19946.126655    -32.234890
PG28  -9726.966740  11873.840905  21666.158559   -549.185775
PG29 -23885.381167   2259.410811  11482.164512   -541.952117
PG30  17142.326595  -6265.711755 -19228.147441   -226.458733
PG31  -1274.592716  16400.698314  20529.714220   -216.581476
PG32 -19063.903548  16819.695090   7554.612099   -530.768177
PJ02 -31801.590085  24965.847554  17201.922943     -0.958246
PJ03 -26210.672057  16847.633644 -23778.291838     -0.376792
PJ04 -24159.008785  34380.145143   1694.447052     -0.022895
PJ07 -25364.392669  33681.059952     43.313903     -0.086680
PR01 -12089.119646  -1897.250150 -22376.711820    113.178499
PR02 -18557.438255  12342.699033 -12292.397714    -37.893189
PR03 -14394.884089  20357.028260   5288.091656    116.014584
PR04  -2937.128439  16592.518749  19176.901827    275.141645
PR05  10350.036949   4244.637589  22941.479577    144.668572
PR06   4044.790210 -17574.389723 -18006.277782 999999.999999
PR07  14385.747856 -20381.211005  -5407.911266     99.931529
PR08   2573.679453 -16569.062579 -19172.239267     -6.262422
PR09  11327.314329  -2034.956060 -22754.003612    235.369068
PR10   3602.644555 -16754.606250 -18943.423231   -278.988389
PR11  -6492.426167 -24272.748727  -4341.482646     -5.270197
PR12 -13173.555053 -16221.812975  14654.065041     50.264484
PR13 -11877.398176   -895.452832  22536.134882    -55.926584
PR14  -2636.574577  18105.115488  17788.035897     27.675099
PR15   7272.138462  24325.955982   2506.857332     71.631655
PR16  13103.920737  16362.324338 -14557.270613     32.932878
PR17  -9579.921268   8439.055840 -22078.420551    162.354809
PR18   8117.625639  11575.596681 -21226.674295    184.771063
PR20  23488.994943   1252.369683   9936.299128   -125.222814
PR21  10939.164734  -7797.245272  21682.446256   -172.939555
PR22  -9042.114462 -12144.951865  20552.504805    -58.620879
PR23 -22028.531269  -9074.648014   9097.616286   -145.659982
PR24 -23358.242253    368.701031 -10236.310389    -90.550543
EOF
